OPTICUBE 04             
1 41851U 16067D   26068.51005515  .00003771  00000+0  24102-3 0  9992
2 41851  98.0811 275.5525 0017089  94.6311 265.6869 15.09188144510131
STARLINK-34309          
1 64167U 25112X   26068.70766135  .00002059  00000+0  14691-3 0  9991
2 64167  97.6025 121.5846 0001436 104.8075 255.3311 15.05646691 43315
